G0 X2.00 Y1.850 Z0.040
G1 X4.00 Y1.850 Z0.040

G0 X4.00 Y1.950 Z0.040
G1 X2.00 Y1.950 Z0.040

G0 X2.00 Y2.050 Z0.040
G1 X4.00 Y2.050 Z0.040

G0 X4.00 Y2.150 Z0.040
G1 X2.00 Y2.150 Z0.040

G0 X2.00 Y1.850 Z0.080
G1 X4.00 Y1.850 Z0.080

G0 X4.00 Y1.950 Z0.080
G1 X2.00 Y1.950 Z0.080

G0 X2.00 Y2.050 Z0.080
G1 X4.00 Y2.050 Z0.080

G0 X4.00 Y2.150 Z0.080
G1 X2.00 Y2.150 Z0.080

G0 X2.00 Y1.850 Z0.120
G1 X4.00 Y1.850 Z0.120

G0 X4.00 Y1.950 Z0.120
G1 X2.00 Y1.950 Z0.120

G0 X2.00 Y2.050 Z0.120
G1 X4.00 Y2.050 Z0.120

G0 X4.00 Y2.150 Z0.120
G1 X2.00 Y2.150 Z0.120

G0 X2.00 Y1.850 Z0.160
G1 X4.00 Y1.850 Z0.160

G0 X4.00 Y1.950 Z0.160
G1 X2.00 Y1.950 Z0.160

G0 X2.00 Y2.050 Z0.160
G1 X4.00 Y2.050 Z0.160

G0 X4.00 Y2.150 Z0.160
G1 X2.00 Y2.150 Z0.160
